NOAA 15                 
1 25338U 98030A   23026.16891363  .00000251  00000+0  12297-3 0  9992
2 25338  98.6229  57.5426 0010509  14.1852 345.9622 14.26230757285018
